[{"OBJECT_NAME":"TECHDEMOSAT-1 (TDS-1)","OBJECT_ID":"2014-037H","EPOCH":"2026-03-09T22:08:12.399936","MEAN_MOTION":15.11581991,"ECCENTRICITY":0.0004745,"INCLINATION":98.3776,"RA_OF_ASC_NODE":51.4583,"ARG_OF_PERICENTER":234.81,"MEAN_ANOMALY":125.2683,"EPHEMERIS_TYPE":0,"CLASSIFICATION_TYPE":"U","NORAD_CAT_ID":40076,"ELEMENT_SET_NO":999,"REV_AT_EPOCH":63322,"BSTAR":0.00065800271,"MEAN_MOTION_DOT":0.00011104,"MEAN_MOTION_DDOT":0},{"OBJECT_NAME":"STARLINK-5355","OBJECT_ID":"2023-090AQ","EPOCH":"2026-03-09T22:00:01.999584","MEAN_MOTION":15.10176382,"ECCENTRICITY":0.00014505,"INCLINATION":43.0006,"RA_OF_ASC_NODE":260.398,"ARG_OF_PERICENTER":306.2736,"MEAN_ANOMALY":190.9947,"EPHEMERIS_TYPE":0,"CLASSIFICATION_TYPE":"U","NORAD_CAT_ID":57139,"ELEMENT_SET_NO":999,"REV_AT_EPOCH":578,"BSTAR":0.0046490767,"MEAN_MOTION_DOT":0.00077856,"MEAN_MOTION_DDOT":0}]
